NORAD_CAT_ID,OBJECT_NAME,OBJECT_TYPE,EPOCH,MEAN_MOTION,ECCENTRICITY,INCLINATION,RA_OF_ASC_NODE,ARG_OF_PERICENTER,MEAN_ANOMALY,BSTAR,MEAN_MOTION_DOT,MEAN_MOTION_DDOT,TLE_LINE0,TLE_LINE1,TLE_LINE2,SEMIMAJOR_AXIS,PERIOD,APOGEE,PERIGEE,DECAYED
49413.0,STARLINK-3157,PAYLOAD,2022-03-26 22:00:00,15.08850576,0.000175,53.2161,220.4783,39.569,190.728,0.00045843,7.018e-05,0.0,0 STARLINK-3157,1 49413U 21104F   22085.91667824  .00007018  00000-0  45843-3 0  9992,2 49413  53.2161 220.4783 0001750  39.5690 190.7280 15.08850576 21906,6917.848000000001,95.437,540.924,538.502,0.0
49413.0,STARLINK-3157,PAYLOAD,2022-03-27 14:00:01,15.0888342,0.0001647,53.2162,217.4853,41.0123,212.5195,-0.0042753,-0.0006777,0.0,0 STARLINK-3157,1 49413U 21104F   22086.58334491 -.00067770  00000-0 -42753-2 0  9996,2 49413  53.2162 217.4853 0001647  41.0123 212.5195 15.08883420  3604,6917.748000000001,95.435,540.752,538.4730000000002,0.0
49413.0,STARLINK-3157,PAYLOAD,2022-03-27 22:00:01,15.08860545,0.0001686999999999,53.2158,215.9889,36.8393,228.374,-0.00073119,-0.00011913,0.0,0 STARLINK-3157,1 49413U 21104F   22086.91668981 -.00011913  00000-0 -73119-3 0  9996,2 49413  53.2158 215.9889 0001687  36.8393 228.3740 15.08860545 22050,6917.818,95.436,540.85,538.516,0.0
49413.0,STARLINK-3157,PAYLOAD,2022-03-28 14:00:01,15.088579,0.0001797,53.216,212.9961,43.1134,245.3197,-0.0010664,-0.00017228,0.0,0 STARLINK-3157,1 49413U 21104F   22087.58335648 -.00017228  00000-0 -10664-2 0  9991,2 49413  53.2160 212.9961 0001797  43.1134 245.3197 15.08857900  3568,6917.826,95.436,540.934,538.448,0.0
49413.0,STARLINK-3157,PAYLOAD,2022-03-28 22:00:00,15.08869867,0.0001912,53.2158,211.4997,42.0518,257.9248,-0.0049042,-0.00077564,0.0,0 STARLINK-3157,1 49413U 21104F   22087.91667824 -.00077564  00000-0 -49042-2 0  9993,2 49413  53.2158 211.4997 0001912  42.0518 257.9248 15.08869867  3562,6917.7890000000025,95.436,540.977,538.331,0.0
49413.0,STARLINK-3157,PAYLOAD,2022-03-29 06:00:02,15.08788613,0.0001878,53.2161,210.0017,50.6227,261.0201,0.0035654,0.00056833,0.0,0 STARLINK-3157,1 49413U 21104F   22088.25002315  .00056833  00000-0  35654-2 0  9997,2 49413  53.2161 210.0017 0001878  50.6227 261.0201 15.08788613 22258,6918.0369999999975,95.441,541.202,538.6030000000002,0.0
49413.0,STARLINK-3157,PAYLOAD,2022-03-29 14:00:01,15.08833227,0.0002041,53.2163,208.5071,46.6108,276.5282,-0.00080125,-0.00013015,0.0,0 STARLINK-3157,1 49413U 21104F   22088.58334491 -.00013015  00000-0 -80125-3 0  9997,2 49413  53.2163 208.5071 0002041  46.6108 276.5282 15.08833227  3563,6917.901,95.438,541.178,538.354,0.0
49413.0,STARLINK-3157,PAYLOAD,2022-03-29 22:00:00,15.088437900000002,0.0002011,53.2164,207.0105,42.5005,292.2198,-0.0021116,-0.00033742,0.0,0 STARLINK-3157,1 49413U 21104F   22088.91667824 -.00033742  00000-0 -21116-2 0  9996,2 49413  53.2164 207.0105 0002011  42.5005 292.2198 15.08843790 22359,6917.869000000002,95.437,541.125,538.3430000000002,0.0
49413.0,STARLINK-3157,PAYLOAD,2022-03-30 12:00:00,15.08851424,0.0001986,53.217,204.3918,45.1312,219.856,-0.00082812,-0.00013448,0.0,0 STARLINK-3157,1 49413U 21104F   22089.50001157 -.00013448  00000-0 -82812-3 0  9995,2 49413  53.2170 204.3918 0001986  45.1312 219.8560 15.08851424 22449,6917.845,95.437,541.0840000000002,538.337,0.0
49413.0,STARLINK-3157,PAYLOAD,2022-03-30 14:00:01,15.08855879,0.0002042,53.2169,204.0181,43.2846,314.6657,-0.001666,-0.00026717,0.0,0 STARLINK-3157,1 49413U 21104F   22089.58335648 -.00026717  00000-0 -16660-2 0  9998,2 49413  53.2169 204.0181 0002042  43.2846 314.6657 15.08855879  3573,6917.831999999999,95.437,541.109,538.284,0.0
49413.0,STARLINK-3157,PAYLOAD,2022-03-30 22:00:00,15.08861885,0.0001984,53.2171,202.5214,38.6321,330.8548,-0.004107,-0.00065101,0.0,0 STARLINK-3157,1 49413U 21104F   22089.91667824 -.00065101  00000-0 -41070-2 0  9992,2 49413  53.2171 202.5214 0001984  38.6321 330.8548 15.08861885  3625,6917.813,95.436,541.0509999999998,538.306,0.0
49413.0,STARLINK-3157,PAYLOAD,2022-03-31 14:00:01,15.08836216,0.000201,53.2176,199.5292,38.2654,354.3919,4.9966000000000014e-06,-2.09e-06,0.0,0 STARLINK-3157,1 49413U 21104F   22090.58334491 -.00000209  00000-0  49966-5 0  9990,2 49413  53.2176 199.5292 0002010  38.2654 354.3919 15.08836216 22610,6917.892,95.438,541.1469999999998,538.366,0.0
49413.0,STARLINK-3157,PAYLOAD,2022-03-31 22:00:00,15.08879208,0.0001953,53.2176,198.0324,35.534,8.7309,-0.0027259,-0.00043457,0.0,0 STARLINK-3157,1 49413U 21104F   22090.91667824 -.00043457  00000-0 -27259-2 0  9997,2 49413  53.2176 198.0324 0001953  35.5340   8.7309 15.08879208 22663,6917.761,95.435,540.977,538.275,0.0
49413.0,STARLINK-3157,PAYLOAD,2022-04-01 14:00:01,15.08869741,0.0002035,53.218,195.0404,37.4292,30.0771,-0.0030882,-0.00049143,0.0,0 STARLINK-3157,1 49413U 21104F   22091.58334491 -.00049143  00000-0 -30882-2 0  9996,2 49413  53.2180 195.0404 0002035  37.4292  30.0771 15.08869741 22766,6917.7890000000025,95.436,541.062,538.247,0.0
49413.0,STARLINK-3157,PAYLOAD,2022-04-01 22:00:00,15.08865808,0.0002047,53.2178,193.5434,38.1028,41.0204,-0.0055721,-0.00087952,0.0,0 STARLINK-3157,1 49413U 21104F   22091.91667824 -.00087952  00000-0 -55721-2 0  9991,2 49413  53.2178 193.5434 0002047  38.1028  41.0204 15.08865808  3589,6917.802,95.436,541.0830000000002,538.25,0.0
49413.0,STARLINK-3157,PAYLOAD,2022-04-02 06:00:00,15.08801173,0.0001989,53.2179,192.0461,44.5905,46.121,0.0035547,0.0005667999999999,0.0,0 STARLINK-3157,1 49413U 21104F   22092.25001157  .00056680  00000-0  35547-2 0  9996,2 49413  53.2179 192.0461 0001989  44.5905  46.1210 15.08801173 22863,6917.999,95.44,541.24,538.488,0.0
49413.0,STARLINK-3157,PAYLOAD,2022-04-02 22:00:01,15.08852406,0.0001929,53.2174,189.0546,36.8978,77.0363,-0.0044959,-0.0007116,0.0,0 STARLINK-3157,1 49413U 21104F   22092.91668981 -.00071160  00000-0 -44959-2 0  9992,2 49413  53.2174 189.0546 0001929  36.8978  77.0363 15.08852406 22964,6917.842,95.437,541.0419999999998,538.373,0.0
49413.0,STARLINK-3157,PAYLOAD,2022-04-03 14:00:01,15.08823592,0.0001979,53.2173,186.0631,36.9897,100.0046,-0.0012968,-0.00020859,0.0,0 STARLINK-3157,1 49413U 21104F   22093.58334491 -.00020859  00000-0 -12968-2 0  9996,2 49413  53.2173 186.0631 0001979  36.9897 100.0046 15.08823592 23062,6917.931,95.439,541.165,538.4259999999998,0.0
49413.0,STARLINK-3157,PAYLOAD,2022-04-03 22:00:00,15.08817256,0.000194,53.2167,184.5659,39.0676,109.4946,-0.00079975,-0.00012986,0.0,0 STARLINK-3157,1 49413U 21104F   22093.91667824 -.00012986  00000-0 -79975-3 0  9996,2 49413  53.2167 184.5659 0001940  39.0676 109.4946 15.08817256  3593,6917.95,95.439,541.1569999999998,538.4730000000002,0.0
49413.0,STARLINK-3157,PAYLOAD,2022-04-04 06:00:02,15.08815812,0.0001832,53.2168,183.0689,44.496,115.6841,0.0019727,0.00031226,0.0,0 STARLINK-3157,1 49413U 21104F   22094.25002315  .00031226  00000-0  19727-2 0  9996,2 49413  53.2168 183.0689 0001832  44.4960 115.6841 15.08815812 23161,6917.954000000002,95.439,541.087,538.552,0.0
49413.0,STARLINK-3157,PAYLOAD,2022-04-04 14:00:01,15.08822832,0.0002055,53.2165,181.5745,39.1478,132.5516,0.0018701,0.00029586,0.0,0 STARLINK-3157,1 49413U 21104F   22094.58334491  .00029586  00000-0  18701-2 0  9992,2 49413  53.2165 181.5745 0002055  39.1478 132.5516 15.08822832  3612,6917.933000000001,95.439,541.22,538.376,0.0
49413.0,STARLINK-3157,PAYLOAD,2022-04-04 22:00:00,15.08870003,0.0001963,53.216,180.0769,39.2816,144.0114,-0.00078487,-0.00012768,0.0,0 STARLINK-3157,1 49413U 21104F   22094.91667824 -.00012768  00000-0 -78487-3 0  9992,2 49413  53.2160 180.0769 0001963  39.2816 144.0114 15.08870003  3605,6917.7890000000025,95.436,541.012,538.2959999999998,0.0
49413.0,STARLINK-3157,PAYLOAD,2022-04-05 06:00:00,15.08863403,0.0001828,53.2162,178.58,42.8852,152.0248,-0.00078599,-0.00012784,0.0,0 STARLINK-3157,1 49413U 21104F   22095.25001157 -.00012784  00000-0 -78599-3 0  9993,2 49413  53.2162 178.5800 0001828  42.8852 152.0248 15.08863403 23318,6917.809,95.436,540.938,538.409,0.0
49413.0,STARLINK-3157,PAYLOAD,2022-04-05 14:00:01,15.08810827,0.00021,53.2159,177.0853,33.6062,172.9566,0.002484,0.00039435,0.0,0 STARLINK-3157,1 49413U 21104F   22095.58335648  .00039435  00000-0  24840-2 0  9993,2 49413  53.2159 177.0853 0002100  33.6062 172.9566 15.08810827  3562,6917.97,95.439,541.2869999999998,538.382,0.0
49413.0,STARLINK-3157,PAYLOAD,2022-04-05 16:00:00,15.08805321,0.0002117,53.2158,176.7114,32.581,266.8143,0.0040462,0.00064638,0.0,0 STARLINK-3157,1 49413U 21104F   22095.66667824  .00064638  00000-0  40462-2 0  9997,2 49413  53.2158 176.7114 0002117  32.5810 266.8143 15.08805321 23372,6917.986,95.44,541.316,538.387,0.0
49413.0,STARLINK-3157,PAYLOAD,2022-04-05 22:00:00,15.08851811,0.0002008,53.2157,175.5877,33.6806,184.3941,-0.00054162,-8.901e-05,0.0,0 STARLINK-3157,1 49413U 21104F   22095.91667824 -.00008901  00000-0 -54162-3 0  9991,2 49413  53.2157 175.5877 0002008  33.6806 184.3941 15.08851811  3610,6917.844,95.437,541.0980000000002,538.32,0.0
49413.0,STARLINK-3157,PAYLOAD,2022-04-06 06:00:02,15.08867194,0.0001936,53.2159,174.0908,37.5831,192.1454,-0.0012812,-0.00020636,0.0,0 STARLINK-3157,1 49413U 21104F   22096.25002315 -.00020636  00000-0 -12812-2 0  9991,2 49413  53.2159 174.0908 0001936  37.5831 192.1454 15.08867194 23463,6917.797,95.436,541.002,538.323,0.0
49413.0,STARLINK-3157,PAYLOAD,2022-04-06 14:00:01,15.08827187,0.0002151,53.2159,172.5962,31.2915,209.998,0.0012905999999999,0.00020305,0.0,0 STARLINK-3157,1 49413U 21104F   22096.58334491  .00020305  00000-0  12906-2 0  9995,2 49413  53.2159 172.5962 0002151  31.2915 209.9980 15.08827187  3603,6917.92,95.438,541.273,538.297,0.0
49413.0,STARLINK-3157,PAYLOAD,2022-04-06 22:00:00,15.08841008,0.0001981,53.216,171.0983,29.4606,223.4221,-0.0016087,-0.00025801,0.0,0 STARLINK-3157,1 49413U 21104F   22096.91667824 -.00025801  00000-0 -16087-2 0  9993,2 49413  53.2160 171.0983 0001981  29.4606 223.4221 15.08841008  3560,6917.877,95.437,541.113,538.372,0.0
